{"type": "FeatureCollection", "features": [ {"type": "Feature", "properties": {"norad_id": 35605, "name": "COSMOS 2251 DEB", "group": "cosmos-2251-debris", "lat": -10.717355922357049, "lon": -59.55651656443732, "alt_km": 455.85844009204266, "timestamp": "2025-12-27T22:26:48.996845+00:00", "meta": {"OBJECT_NAME": "COSMOS 2251 DEB", "OBJECT_ID": "1993-036AMY", "EPOCH": "2025-12-22T14:36:44.008416", "MEAN_MOTION": 15.38179315, "ECCENTRICITY": 0.00228045, "INCLINATION": 73.869, "RA_OF_ASC_NODE": 315.1978, "ARG_OF_PERICENTER": 235.9327, "MEAN_ANOMALY": 123.9715, "EPHEMERIS_TYPE": 0, "CLASSIFICATION_TYPE": "U", "NORAD_CAT_ID": 35605, "ELEMENT_SET_NO": 999, "REV_AT_EPOCH": 66123, "BSTAR": 0.0066900453, "MEAN_MOTION_DOT": 0.00262511, "MEAN_MOTION_DDOT": 0}, "tle": {"line1": "1 35605U 93036AMY 25356.60884269  .00262511  00000+0  66900-2 0  9993", "line2": "2 35605  73.8690 315.1978 0022804 235.9327 123.9715 15.38179315661234"}}, "geometry": {"type": "Point", "coordinates": [-59.55651656443732, -10.717355922357049]}}, {"type": "Feature", "properties": {"norad_id": 35606, "name": "COSMOS 2251 DEB", "group": "cosmos-2251-debris", "lat": 70.4912754354116, "lon": 111.49581206342448, "alt_km": 1076.0409032237812, "timestamp": "2025-12-27T22:26:48.996854+00:00", "meta": {"OBJECT_NAME": "COSMOS 2251 DEB", "OBJECT_ID": "1993-036AMZ", "EPOCH": "2025-12-23T17:40:03.776448", "MEAN_MOTION": 13.41219482, "ECCENTRICITY": 0.0456715, "INCLINATION": 73.8099, "RA_OF_ASC_NODE": 353.2688, "ARG_OF_PERICENTER": 197.3533, "MEAN_ANOMALY": 161.1513, "EPHEMERIS_TYPE": 0, "CLASSIFICATION_TYPE": "U", "NORAD_CAT_ID": 35606, "ELEMENT_SET_NO": 999, "REV_AT_EPOCH": 61187, "BSTAR": 0.00021068754, "MEAN_MOTION_DOT": 1.94e-06, "MEAN_MOTION_DDOT": 0}, "tle": {"line1": "1 35606U 93036AMZ 25357.73615482  .00000194  00000+0  21069-3 0  9993", "line2": "2 35606  73.8099 353.2688 0456715 197.3533 161.1513 13.41219482611878"}}, "geometry": {"type": "Point", "coordinates": [111.49581206342448, 70.4912754354116]}}, {"type": "Feature", "properties": {"norad_id": 35611, "name": "COSMOS 2251 DEB", "group": "cosmos-2251-debris", "lat": -51.7908526572474, "lon": -8.975390045610878, "alt_km": 642.9740006129878, "timestamp": "2025-12-27T22:26:48.996864+00:00", "meta": {"OBJECT_NAME": "COSMOS 2251 DEB", "OBJECT_ID": "1993-036ANE", "EPOCH": "2025-12-19T11:16:40.848672", "MEAN_MOTION": 14.73020971, "ECCENTRICITY": 0.0021353, "INCLINATION": 74.0189, "RA_OF_ASC_NODE": 166.1787, "ARG_OF_PERICENTER": 238.9125, "MEAN_ANOMALY": 120.9952, "EPHEMERIS_TYPE": 0, "CLASSIFICATION_TYPE": "U", "NORAD_CAT_ID": 35611, "ELEMENT_SET_NO": 999, "REV_AT_EPOCH": 87389, "BSTAR": 0.0015718, "MEAN_MOTION_DOT": 0.0001012, "MEAN_MOTION_DDOT": 0}, "tle": {"line1": "1 35611U 93036ANE 25353.46991723  .00010120  00000+0  15718-2 0  9993", "line2": "2 35611  74.0189 166.1787 0021353 238.9125 120.9952 14.73020971873894"}}, "geometry": {"type": "Point", "coordinates": [-8.975390045610878, -51.7908526572474]}}, {"type": "Feature", "properties": {"norad_id": 35614, "name": "COSMOS 2251 DEB", "group": "cosmos-2251-debris", "lat": 26.924496544257327, "lon": -53.602548929591244, "alt_km": 695.1666750462327, "timestamp": "2025-12-27T22:26:48.996874+00:00", "meta": {"OBJECT_NAME": "COSMOS 2251 DEB", "OBJECT_ID": "1993-036ANH", "EPOCH": "2025-12-27T02:40:46.894368", "MEAN_MOTION": 14.67135192, "ECCENTRICITY": 0.00749259, "INCLINATION": 73.9589, "RA_OF_ASC_NODE": 299.5919, "ARG_OF_PERICENTER": 150.2949, "MEAN_ANOMALY": 210.2508, "EPHEMERIS_TYPE": 0, "CLASSIFICATION_TYPE": "U", "NORAD_CAT_ID": 35614, "ELEMENT_SET_NO": 999, "REV_AT_EPOCH": 87940, "BSTAR": 0.00089232361, "MEAN_MOTION_DOT": 5.202e-05, "MEAN_MOTION_DDOT": 0}, "tle": {"line1": "1 35614U 93036ANH 25361.11165387  .00005202  00000+0  89232-3 0  9994", "line2": "2 35614  73.9589 299.5919 0074925 150.2949 210.2508 14.67135192879408"}}, "geometry": {"type": "Point", "coordinates": [-53.602548929591244, 26.924496544257327]}}, {"type": "Feature", "properties": {"norad_id": 35645, "name": "COSMOS 2251 DEB", "group": "cosmos-2251-debris", "lat": 18.943723475473707, "lon": 64.93375657381482, "alt_km": 787.0988306645104, "timestamp": "2025-12-27T22:26:48.996883+00:00", "meta": {"OBJECT_NAME": "COSMOS 2251 DEB", "OBJECT_ID": "1993-036ANL", "EPOCH": "2025-12-25T10:34:11.479296", "MEAN_MOTION": 14.45753423, "ECCENTRICITY": 0.0069637, "INCLINATION": 73.9639, "RA_OF_ASC_NODE": 63.9405, "ARG_OF_PERICENTER": 220.3088, "MEAN_ANOMALY": 139.2896, "EPHEMERIS_TYPE": 0, "CLASSIFICATION_TYPE": "U", "NORAD_CAT_ID": 35645, "ELEMENT_SET_NO": 999, "REV_AT_EPOCH": 86955, "BSTAR": 0.0018908, "MEAN_MOTION_DOT": 6.883e-05, "MEAN_MOTION_DDOT": 0}, "tle": {"line1": "1 35645U 93036ANL 25359.44041064  .00006883  00000+0  18908-2 0  9993", "line2": "2 35645  73.9639  63.9405 0069637 220.3088 139.2896 14.45753423869552"}}, "geometry": {"type": "Point", "coordinates": [64.93375657381482, 18.943723475473707]}}, {"type": "Feature", "properties": {"norad_id": 35646, "name": "COSMOS 2251 DEB", "group": "cosmos-2251-debris", "lat": -27.93610646399293, "lon": 23.091651314200988, "alt_km": 1445.2548373182399, "timestamp": "2025-12-27T22:26:48.996893+00:00", "meta": {"OBJECT_NAME": "COSMOS 2251 DEB", "OBJECT_ID": "1993-036ANM", "EPOCH": "2025-12-26T18:32:55.078080", "MEAN_MOTION": 13.40837286, "ECCENTRICITY": 0.04556604, "INCLINATION": 73.8713, "RA_OF_ASC_NODE": 33.7616, "ARG_OF_PERICENTER": 141.5666, "MEAN_ANOMALY": 341.3849, "EPHEMERIS_TYPE": 0, "CLASSIFICATION_TYPE": "U", "NORAD_CAT_ID": 35646, "ELEMENT_SET_NO": 999, "REV_AT_EPOCH": 82046, "BSTAR": 0.00042220461, "MEAN_MOTION_DOT": 4.1e-06, "MEAN_MOTION_DDOT": 0}, "tle": {"line1": "1 35646U 93036ANM 25360.77285970  .00000410  00000+0  42220-3 0  9993", "line2": "2 35646  73.8713  33.7616 0455660 141.5666 341.3849 13.40837286820460"}}, "geometry": {"type": "Point", "coordinates": [23.091651314200988, -27.93610646399293]}}, {"type": "Feature", "properties": {"norad_id": 35647, "name": "COSMOS 2251 DEB", "group": "cosmos-2251-debris", "lat": -18.946808826054216, "lon": -99.34453791370944, "alt_km": 720.3554635329147, "timestamp": "2025-12-27T22:26:48.996903+00:00", "meta": {"OBJECT_NAME": "COSMOS 2251 DEB", "OBJECT_ID": "1993-036ANN", "EPOCH": "2025-12-24T03:04:08.125248", "MEAN_MOTION": 14.43689782, "ECCENTRICITY": 0.00461776, "INCLINATION": 74.0232, "RA_OF_ASC_NODE": 273.3799, "ARG_OF_PERICENTER": 9.8571, "MEAN_ANOMALY": 350.348, "EPHEMERIS_TYPE": 0, "CLASSIFICATION_TYPE": "U", "NORAD_CAT_ID": 35647, "ELEMENT_SET_NO": 999, "REV_AT_EPOCH": 67828, "BSTAR": 0.0007860854, "MEAN_MOTION_DOT": 2.678e-05, "MEAN_MOTION_DDOT": 0}, "tle": {"line1": "1 35647U 93036ANN 25358.12787182  .00002678  00000+0  78609-3 0  9990", "line2": "2 35647  74.0232 273.3799 0046177   9.8571 350.3480 14.43689782678286"}}, "geometry": {"type": "Point", "coordinates": [-99.34453791370944, -18.946808826054216]}}, {"type": "Feature", "properties": {"norad_id": 35650, "name": "COSMOS 2251 DEB", "group": "cosmos-2251-debris", "lat": -6.3656919944025505, "lon": 170.61464646206895, "alt_km": 629.7402739624758, "timestamp": "2025-12-27T22:26:48.996913+00:00", "meta": {"OBJECT_NAME": "COSMOS 2251 DEB", "OBJECT_ID": "1993-036ANR", "EPOCH": "2025-12-24T10:09:10.296576", "MEAN_MOTION": 14.83923288, "ECCENTRICITY": 0.00151483, "INCLINATION": 74.0477, "RA_OF_ASC_NODE": 355.7395, "ARG_OF_PERICENTER": 38.3431, "MEAN_ANOMALY": 112.3443, "EPHEMERIS_TYPE": 0, "CLASSIFICATION_TYPE": "U", "NORAD_CAT_ID": 35650, "ELEMENT_SET_NO": 999, "REV_AT_EPOCH": 87807, "BSTAR": 0.0020058306, "MEAN_MOTION_DOT": 0.00016711, "MEAN_MOTION_DDOT": 0}, "tle": {"line1": "1 35650U 93036ANR 25358.42303584  .00016711  00000+0  20058-2 0  9994", "line2": "2 35650  74.0477 355.7395 0015148  38.3431 112.3443 14.83923288878074"}}, "geometry": {"type": "Point", "coordinates": [170.61464646206895, -6.3656919944025505]}}, {"type": "Feature", "properties": {"norad_id": 35660, "name": "COSMOS 2251 DEB", "group": "cosmos-2251-debris", "lat": 66.5624232321456, "lon": 146.01442531722807, "alt_km": 732.1983264393357, "timestamp": "2025-12-27T22:26:48.996923+00:00", "meta": {"OBJECT_NAME": "COSMOS 2251 DEB", "OBJECT_ID": "1993-036APB", "EPOCH": "2025-12-27T01:24:45.796896", "MEAN_MOTION": 14.49979344, "ECCENTRICITY": 0.00187711, "INCLINATION": 74.0419, "RA_OF_ASC_NODE": 106.3555, "ARG_OF_PERICENTER": 254.0506, "MEAN_ANOMALY": 285.5771, "EPHEMERIS_TYPE": 0, "CLASSIFICATION_TYPE": "U", "NORAD_CAT_ID": 35660, "ELEMENT_SET_NO": 999, "REV_AT_EPOCH": 66078, "BSTAR": 0.00058130223, "MEAN_MOTION_DOT": 2.228e-05, "MEAN_MOTION_DDOT": 0}, "tle": {"line1": "1 35660U 93036APB 25361.05886339  .00002228  00000+0  58130-3 0  9993", "line2": "2 35660  74.0419 106.3555 0018771 254.0506 285.5771 14.49979344660784"}}, "geometry": {"type": "Point", "coordinates": [146.01442531722807, 66.5624232321456]}}, {"type": "Feature", "properties": {"norad_id": 35661, "name": "COSMOS 2251 DEB", "group": "cosmos-2251-debris", "lat": -72.35350232139606, "lon": -14.88320235531043, "alt_km": 651.7981397326384, "timestamp": "2025-12-27T22:26:48.996932+00:00", "meta": {"OBJECT_NAME": "COSMOS 2251 DEB", "OBJECT_ID": "1993-036APC", "EPOCH": "2025-12-23T10:37:17.617728", "MEAN_MOTION": 14.86718624, "ECCENTRICITY": 0.00868669, "INCLINATION": 74.0127, "RA_OF_ASC_NODE": 58.3939, "ARG_OF_PERICENTER": 159.8507, "MEAN_ANOMALY": 200.6139, "EPHEMERIS_TYPE": 0, "CLASSIFICATION_TYPE": "U", "NORAD_CAT_ID": 35661, "ELEMENT_SET_NO": 999, "REV_AT_EPOCH": 88027, "BSTAR": 0.00075396446, "MEAN_MOTION_DOT": 7.154e-05, "MEAN_MOTION_DDOT": 0}, "tle": {"line1": "1 35661U 93036APC 25357.44256502  .00007154  00000+0  75396-3 0  9991", "line2": "2 35661  74.0127  58.3939 0086866 159.8507 200.6139 14.86718624880273"}}, "geometry": {"type": "Point", "coordinates": [-14.88320235531043, -72.35350232139606]}}]}